{
    "links": {
        "self": "http://www.neowsapp.com/rest/v1/neo/3720355?api_key=iIulBulltgU6a56xZRHN4H3l9WmuAYTsLGpBGhQ2"
    },
    "id": "3720355",
    "neo_reference_id": "3720355",
    "name": "(2015 KQ121)",
    "designation": "2015 KQ121",
    "nasa_jpl_url": "http://ssd.jpl.nasa.gov/sbdb.cgi?sstr=3720355",
    "absolute_magnitude_h": 22.5,
    "estimated_diameter": {
        "kilometers": {
            "estimated_diameter_min": 0.0840533402,
            "estimated_diameter_max": 0.1879489824
        },
        "meters": {
            "estimated_diameter_min": 84.0533402073,
            "estimated_diameter_max": 187.9489824394
        },
        "miles": {
            "estimated_diameter_min": 0.0522283081,
            "estimated_diameter_max": 0.1167860472
        },
        "feet": {
            "estimated_diameter_min": 275.7655606856,
            "estimated_diameter_max": 616.6305395464
        }
    },
    "is_potentially_hazardous_asteroid": false,
    "close_approach_data": [
        {
            "close_approach_date": "2015-06-02",
            "close_approach_date_full": "2015-Jun-02 21:17",
            "epoch_date_close_approach": 1433279820000,
            "relative_velocity": {
                "kilometers_per_second": "3.1912627093",
                "kilometers_per_hour": "11488.5457533089",
                "miles_per_hour": "7138.5355543268"
            },
            "miss_distance": {
                "astronomical": "0.3147947725",
                "lunar": "122.4551665025",
                "kilometers": "47092627.453134575",
                "miles": "29262001.802324135"
            },
            "orbiting_body": "Earth"
        }
    ],
    "orbital_data": {
        "orbit_id": "6",
        "orbit_determination_date": "2017-04-06 08:33:28",
        "first_observation_date": "2015-05-21",
        "last_observation_date": "2015-06-21",
        "data_arc_in_days": 31,
        "observations_used": 18,
        "orbit_uncertainty": "7",
        "minimum_orbit_intersection": ".275523",
        "jupiter_tisserand_invariant": "3.516",
        "epoch_osculation": "2459000.5",
        "eccentricity": ".4219323881777702",
        "semi_major_axis": "2.229477336473745",
        "inclination": "4.956041734044042",
        "ascending_node_longitude": "97.39999419070551",
        "orbital_period": "1215.914450261726",
        "perihelion_distance": "1.288788639507164",
        "perihelion_argument": "159.8386075141886",
        "aphelion_distance": "3.170166033440327",
        "perihelion_time": "2458406.845257017342",
        "mean_anomaly": "175.7654146044194",
        "mean_motion": ".2960734613545466",
        "equinox": "J2000",
        "orbit_class": {
            "orbit_class_type": "AMO",
            "orbit_class_description": "Near-Earth asteroid orbits similar to that of 1221 Amor",
            "orbit_class_range": "1.017 AU < q (perihelion) < 1.3 AU"
        }
    },
    "is_sentry_object": false
}